STARLINK-36449          
1 67308U 26002D   26025.58334491 -.02077514  00000+0 -21981-1 0  9995
2 67308  42.9998 211.4132 0001574 271.9810 147.4834 15.66648729  4544
STARLINK-36482          
1 67309U 26002E   26025.58334491 -.02076976  00000+0 -21975-1 0  9990
2 67309  42.9996 211.3905 0001377 274.1078 154.9384 15.66650826  4489
STARLINK-36491          
1 67310U 26002F   26025.58334491 -.02076089  00000+0 -21964-1 0  9995
2 67310  42.9996 211.4237 0001670 273.3995 142.2306 15.66647562  4482
STARLINK-36495          
1 67311U 26002G   26025.58334491 -.02074449  00000+0 -21945-1 0  9993
2 67311  42.9997 211.4087 0001480 274.2309 147.1490 15.66648103  4643
STARLINK-36485          
1 67312U 26002H   26025.58334491 -.02073446  00000+0 -21933-1 0  9997
2 67312  42.9995 211.4037 0001569 273.3087 149.9890 15.66646893  4488
STARLINK-36445          
1 67313U 26002J   26025.58334491 -.02077828  00000+0 -21984-1 0  9992
2 67313  42.9994 211.3986 0001644 273.5453 151.6687 15.66649048  4640
STARLINK-36476          
1 67314U 26002K   26025.58334491 -.02082072  00000+0 -22035-1 0  9998
2 67314  42.9996 211.3945 0001481 273.8854 153.2473 15.66651518  4483
STARLINK-36463          
1 67315U 26002L   26025.58334491 -.02077118  00000+0 -21976-1 0  9997
2 67315  42.9993 211.3844 0001505 274.2747 156.6908 15.66649232  4549
STARLINK-36461          
1 67316U 26002M   26025.58334491 -.02071762  00000+0 -21916-1 0  9991
2 67316  42.9995 211.3793 0001459 271.7560 161.1301 15.66644288  4643
STARLINK-36450          
1 67317U 26002N   26025.58334491 -.02075361  00000+0 -21956-1 0  9995
2 67317  42.9994 211.3747 0001640 273.4975 161.3040 15.66646901  4649
STARLINK-36498          
1 67318U 26002P   26025.58334491 -.02071532  00000+0 -21913-1 0  9995
2 67318  42.9999 211.3645 0001465 273.2787 165.3563 15.66645348  4543
STARLINK-36470          
1 67319U 26002Q   26025.58334491 -.02075151  00000+0 -21953-1 0  9991
2 67319  42.9998 211.3704 0001583 273.7880 162.9278 15.66647856  4541
