CCSDS_OMM_VERS = 2.0
CREATION_DATE  = 
ORIGINATOR     = 

OBJECT_NAME    = STARLINK-36449
OBJECT_ID      = 2026-002D
CENTER_NAME    = EARTH
REF_FRAME      = TEME
TIME_SYSTEM    = UTC
MEAN_ELEMENT_THEORY = SGP/SGP4

EPOCH          = 2026-01-25T14:00:01.000224
MEAN_MOTION    = 15.66648729
ECCENTRICITY   = .00015744
INCLINATION    = 42.9998
RA_OF_ASC_NODE = 211.4132
ARG_OF_PERICENTER = 271.9810
MEAN_ANOMALY   = 147.4834

EPHEMERIS_TYPE = 0
CLASSIFICATION_TYPE = U
NORAD_CAT_ID   = 67308
ELEMENT_SET_NO = 999
REV_AT_EPOCH   = 454
BSTAR          = -.21980962E-1
MEAN_MOTION_DOT = -.2077514E-1
MEAN_MOTION_DDOT = 0

CCSDS_OMM_VERS = 2.0
CREATION_DATE  = 
ORIGINATOR     = 

OBJECT_NAME    = STARLINK-36482
OBJECT_ID      = 2026-002E
CENTER_NAME    = EARTH
REF_FRAME      = TEME
TIME_SYSTEM    = UTC
MEAN_ELEMENT_THEORY = SGP/SGP4

EPOCH          = 2026-01-25T14:00:01.000224
MEAN_MOTION    = 15.66650826
ECCENTRICITY   = .00013779
INCLINATION    = 42.9996
RA_OF_ASC_NODE = 211.3905
ARG_OF_PERICENTER = 274.1078
MEAN_ANOMALY   = 154.9384

EPHEMERIS_TYPE = 0
CLASSIFICATION_TYPE = U
NORAD_CAT_ID   = 67309
ELEMENT_SET_NO = 999
REV_AT_EPOCH   = 448
BSTAR          = -.21974578E-1
MEAN_MOTION_DOT = -.2076976E-1
MEAN_MOTION_DDOT = 0

CCSDS_OMM_VERS = 2.0
CREATION_DATE  = 
ORIGINATOR     = 

OBJECT_NAME    = STARLINK-36491
OBJECT_ID      = 2026-002F
CENTER_NAME    = EARTH
REF_FRAME      = TEME
TIME_SYSTEM    = UTC
MEAN_ELEMENT_THEORY = SGP/SGP4

EPOCH          = 2026-01-25T14:00:01.000224
MEAN_MOTION    = 15.66647562
ECCENTRICITY   = .00016707
INCLINATION    = 42.9996
RA_OF_ASC_NODE = 211.4237
ARG_OF_PERICENTER = 273.3995
MEAN_ANOMALY   = 142.2306

EPHEMERIS_TYPE = 0
CLASSIFICATION_TYPE = U
NORAD_CAT_ID   = 67310
ELEMENT_SET_NO = 999
REV_AT_EPOCH   = 448
BSTAR          = -.21963734E-1
MEAN_MOTION_DOT = -.2076089E-1
MEAN_MOTION_DDOT = 0

CCSDS_OMM_VERS = 2.0
CREATION_DATE  = 
ORIGINATOR     = 

OBJECT_NAME    = STARLINK-36495
OBJECT_ID      = 2026-002G
CENTER_NAME    = EARTH
REF_FRAME      = TEME
TIME_SYSTEM    = UTC
MEAN_ELEMENT_THEORY = SGP/SGP4

EPOCH          = 2026-01-25T14:00:01.000224
MEAN_MOTION    = 15.66648103
ECCENTRICITY   = .00014805
INCLINATION    = 42.9997
RA_OF_ASC_NODE = 211.4087
ARG_OF_PERICENTER = 274.2309
MEAN_ANOMALY   = 147.1490

EPHEMERIS_TYPE = 0
CLASSIFICATION_TYPE = U
NORAD_CAT_ID   = 67311
ELEMENT_SET_NO = 999
REV_AT_EPOCH   = 464
BSTAR          = -.21945361E-1
MEAN_MOTION_DOT = -.2074449E-1
MEAN_MOTION_DDOT = 0

CCSDS_OMM_VERS = 2.0
CREATION_DATE  = 
ORIGINATOR     = 

OBJECT_NAME    = STARLINK-36485
OBJECT_ID      = 2026-002H
CENTER_NAME    = EARTH
REF_FRAME      = TEME
TIME_SYSTEM    = UTC
MEAN_ELEMENT_THEORY = SGP/SGP4

EPOCH          = 2026-01-25T14:00:01.000224
MEAN_MOTION    = 15.66646893
ECCENTRICITY   = .00015698
INCLINATION    = 42.9995
RA_OF_ASC_NODE = 211.4037
ARG_OF_PERICENTER = 273.3087
MEAN_ANOMALY   = 149.9890

EPHEMERIS_TYPE = 0
CLASSIFICATION_TYPE = U
NORAD_CAT_ID   = 67312
ELEMENT_SET_NO = 999
REV_AT_EPOCH   = 448
BSTAR          = -.21933365E-1
MEAN_MOTION_DOT = -.2073446E-1
MEAN_MOTION_DDOT = 0

CCSDS_OMM_VERS = 2.0
CREATION_DATE  = 
ORIGINATOR     = 

OBJECT_NAME    = STARLINK-36445
OBJECT_ID      = 2026-002J
CENTER_NAME    = EARTH
REF_FRAME      = TEME
TIME_SYSTEM    = UTC
MEAN_ELEMENT_THEORY = SGP/SGP4

EPOCH          = 2026-01-25T14:00:01.000224
MEAN_MOTION    = 15.66649048
ECCENTRICITY   = .00016444
INCLINATION    = 42.9994
RA_OF_ASC_NODE = 211.3986
ARG_OF_PERICENTER = 273.5453
MEAN_ANOMALY   = 151.6687

EPHEMERIS_TYPE = 0
CLASSIFICATION_TYPE = U
NORAD_CAT_ID   = 67313
ELEMENT_SET_NO = 999
REV_AT_EPOCH   = 464
BSTAR          = -.21983737E-1
MEAN_MOTION_DOT = -.2077828E-1
MEAN_MOTION_DDOT = 0

CCSDS_OMM_VERS = 2.0
CREATION_DATE  = 
ORIGINATOR     = 

OBJECT_NAME    = STARLINK-36476
OBJECT_ID      = 2026-002K
CENTER_NAME    = EARTH
REF_FRAME      = TEME
TIME_SYSTEM    = UTC
MEAN_ELEMENT_THEORY = SGP/SGP4

EPOCH          = 2026-01-25T14:00:01.000224
MEAN_MOTION    = 15.66651518
ECCENTRICITY   = .00014812
INCLINATION    = 42.9996
RA_OF_ASC_NODE = 211.3945
ARG_OF_PERICENTER = 273.8854
MEAN_ANOMALY   = 153.2473

EPHEMERIS_TYPE = 0
CLASSIFICATION_TYPE = U
NORAD_CAT_ID   = 67314
ELEMENT_SET_NO = 999
REV_AT_EPOCH   = 448
BSTAR          = -.22034681E-1
MEAN_MOTION_DOT = -.2082072E-1
MEAN_MOTION_DDOT = 0

CCSDS_OMM_VERS = 2.0
CREATION_DATE  = 
ORIGINATOR     = 

OBJECT_NAME    = STARLINK-36463
OBJECT_ID      = 2026-002L
CENTER_NAME    = EARTH
REF_FRAME      = TEME
TIME_SYSTEM    = UTC
MEAN_ELEMENT_THEORY = SGP/SGP4

EPOCH          = 2026-01-25T14:00:01.000224
MEAN_MOTION    = 15.66649232
ECCENTRICITY   = .00015058
INCLINATION    = 42.9993
RA_OF_ASC_NODE = 211.3844
ARG_OF_PERICENTER = 274.2747
MEAN_ANOMALY   = 156.6908

EPHEMERIS_TYPE = 0
CLASSIFICATION_TYPE = U
NORAD_CAT_ID   = 67315
ELEMENT_SET_NO = 999
REV_AT_EPOCH   = 454
BSTAR          = -.21976422E-1
MEAN_MOTION_DOT = -.2077118E-1
MEAN_MOTION_DDOT = 0

CCSDS_OMM_VERS = 2.0
CREATION_DATE  = 
ORIGINATOR     = 

OBJECT_NAME    = STARLINK-36461
OBJECT_ID      = 2026-002M
CENTER_NAME    = EARTH
REF_FRAME      = TEME
TIME_SYSTEM    = UTC
MEAN_ELEMENT_THEORY = SGP/SGP4

EPOCH          = 2026-01-25T14:00:01.000224
MEAN_MOTION    = 15.66644288
ECCENTRICITY   = .00014599
INCLINATION    = 42.9995
RA_OF_ASC_NODE = 211.3793
ARG_OF_PERICENTER = 271.7560
MEAN_ANOMALY   = 161.1301

EPHEMERIS_TYPE = 0
CLASSIFICATION_TYPE = U
NORAD_CAT_ID   = 67316
ELEMENT_SET_NO = 999
REV_AT_EPOCH   = 464
BSTAR          = -.21916445E-1
MEAN_MOTION_DOT = -.2071762E-1
MEAN_MOTION_DDOT = 0

CCSDS_OMM_VERS = 2.0
CREATION_DATE  = 
ORIGINATOR     = 

OBJECT_NAME    = STARLINK-36450
OBJECT_ID      = 2026-002N
CENTER_NAME    = EARTH
REF_FRAME      = TEME
TIME_SYSTEM    = UTC
MEAN_ELEMENT_THEORY = SGP/SGP4

EPOCH          = 2026-01-25T14:00:01.000224
MEAN_MOTION    = 15.66646901
ECCENTRICITY   = .000164
INCLINATION    = 42.9994
RA_OF_ASC_NODE = 211.3747
ARG_OF_PERICENTER = 273.4975
MEAN_ANOMALY   = 161.3040

EPHEMERIS_TYPE = 0
CLASSIFICATION_TYPE = U
NORAD_CAT_ID   = 67317
ELEMENT_SET_NO = 999
REV_AT_EPOCH   = 464
BSTAR          = -.21955821E-1
MEAN_MOTION_DOT = -.2075361E-1
MEAN_MOTION_DDOT = 0

CCSDS_OMM_VERS = 2.0
CREATION_DATE  = 
ORIGINATOR     = 

OBJECT_NAME    = STARLINK-36498
OBJECT_ID      = 2026-002P
CENTER_NAME    = EARTH
REF_FRAME      = TEME
TIME_SYSTEM    = UTC
MEAN_ELEMENT_THEORY = SGP/SGP4

EPOCH          = 2026-01-25T14:00:01.000224
MEAN_MOTION    = 15.66645348
ECCENTRICITY   = .0001465
INCLINATION    = 42.9999
RA_OF_ASC_NODE = 211.3645
ARG_OF_PERICENTER = 273.2787
MEAN_ANOMALY   = 165.3563

EPHEMERIS_TYPE = 0
CLASSIFICATION_TYPE = U
NORAD_CAT_ID   = 67318
ELEMENT_SET_NO = 999
REV_AT_EPOCH   = 454
BSTAR          = -.21912665E-1
MEAN_MOTION_DOT = -.2071532E-1
MEAN_MOTION_DDOT = 0

CCSDS_OMM_VERS = 2.0
CREATION_DATE  = 
ORIGINATOR     = 

OBJECT_NAME    = STARLINK-36470
OBJECT_ID      = 2026-002Q
CENTER_NAME    = EARTH
REF_FRAME      = TEME
TIME_SYSTEM    = UTC
MEAN_ELEMENT_THEORY = SGP/SGP4

EPOCH          = 2026-01-25T14:00:01.000224
MEAN_MOTION    = 15.66647856
ECCENTRICITY   = .00015835
INCLINATION    = 42.9998
RA_OF_ASC_NODE = 211.3704
ARG_OF_PERICENTER = 273.7880
MEAN_ANOMALY   = 162.9278

EPHEMERIS_TYPE = 0
CLASSIFICATION_TYPE = U
NORAD_CAT_ID   = 67319
ELEMENT_SET_NO = 999
REV_AT_EPOCH   = 454
BSTAR          = -.21953019E-1
MEAN_MOTION_DOT = -.2075151E-1
MEAN_MOTION_DDOT = 0

